FLOCK 4H-34             
1 66737U 25276BZ  26197.13838228  .00003711  00000+0  17123-3 0  9999
2 66737  97.4228 270.5370 0002635 167.2602 192.8700 15.20845598 34086
FLOCK 4H-35             
1 66738U 25276CA  26197.17984418  .00003230  00000+0  14895-3 0  9996
2 66738  97.4188 270.5152 0002667 149.9271 210.2119 15.20961442 34136
FLOCK 4H-36             
1 66739U 25276CB  26197.15274003  .00003668  00000+0  16989-3 0  9998
2 66739  97.4238 270.5437 0002559 180.4888 179.6345 15.20725723 34839
