{"fetched_at":"2026-07-16T17:46:07.288Z","source":"https://celestrak.org/NORAD/elements/gp.php?GROUP=planet&FORMAT=JSON","constellation":"superdove","records":[{"OBJECT_NAME":"FLOCK 4H-34","OBJECT_ID":"2025-276BZ","EPOCH":"2026-07-16T03:19:16.228992","CLASSIFICATION_TYPE":"U","MEAN_MOTION":15.20845598,"ECCENTRICITY":0.00026356,"INCLINATION":97.4228,"RA_OF_ASC_NODE":270.537,"ARG_OF_PERICENTER":167.2602,"MEAN_ANOMALY":192.87,"EPHEMERIS_TYPE":0,"NORAD_CAT_ID":66737,"ELEMENT_SET_NO":999,"REV_AT_EPOCH":3408,"BSTAR":0.00017122529,"MEAN_MOTION_DOT":0.00003711,"MEAN_MOTION_DDOT":0},{"OBJECT_NAME":"FLOCK 4H-35","OBJECT_ID":"2025-276CA","EPOCH":"2026-07-16T04:18:58.537152","CLASSIFICATION_TYPE":"U","MEAN_MOTION":15.20961442,"ECCENTRICITY":0.00026678,"INCLINATION":97.4188,"RA_OF_ASC_NODE":270.5152,"ARG_OF_PERICENTER":149.9271,"MEAN_ANOMALY":210.2119,"EPHEMERIS_TYPE":0,"NORAD_CAT_ID":66738,"ELEMENT_SET_NO":999,"REV_AT_EPOCH":3413,"BSTAR":0.00014894644,"MEAN_MOTION_DOT":0.0000323,"MEAN_MOTION_DDOT":0},{"OBJECT_NAME":"FLOCK 4H-36","OBJECT_ID":"2025-276CB","EPOCH":"2026-07-16T03:39:56.738592","CLASSIFICATION_TYPE":"U","MEAN_MOTION":15.20725723,"ECCENTRICITY":0.0002559,"INCLINATION":97.4238,"RA_OF_ASC_NODE":270.5437,"ARG_OF_PERICENTER":180.4888,"MEAN_ANOMALY":179.6345,"EPHEMERIS_TYPE":0,"NORAD_CAT_ID":66739,"ELEMENT_SET_NO":999,"REV_AT_EPOCH":3483,"BSTAR":0.00016988817,"MEAN_MOTION_DOT":0.00003668,"MEAN_MOTION_DDOT":0}]}
